{"type": "FeatureCollection", "features": [ {"type": "Feature", "properties": {"norad_id": 31630, "name": "FENGYUN 1C DEB", "group": "fengyun-1c-debris", "lat": 11.273475203201084, "lon": 159.6129477093692, "alt_km": 456.82970823869164, "timestamp": "2025-12-19T08:58:49.621670+00:00", "meta": {"OBJECT_NAME": "FENGYUN 1C DEB", "OBJECT_ID": "1999-025CAL", "EPOCH": "2025-12-14T04:35:18.006432", "MEAN_MOTION": 15.0634372, "ECCENTRICITY": 0.01649676, "INCLINATION": 98.0909, "RA_OF_ASC_NODE": 155.7947, "ARG_OF_PERICENTER": 351.7754, "MEAN_ANOMALY": 8.0772, "EPHEMERIS_TYPE": 0, "CLASSIFICATION_TYPE": "U", "NORAD_CAT_ID": 31630, "ELEMENT_SET_NO": 999, "REV_AT_EPOCH": 98612, "BSTAR": 0.00070852391, "MEAN_MOTION_DOT": 0.00014158, "MEAN_MOTION_DDOT": 0}, "tle": {"line1": "1 31630U 99025CAL 25348.19118063  .00014158  00000+0  70852-3 0  9992", "line2": "2 31630  98.0909 155.7947 0164967 351.7754   8.0772 15.06343720986124"}}, "geometry": {"type": "Point", "coordinates": [159.6129477093692, 11.273475203201084]}}, {"type": "Feature", "properties": {"norad_id": 31631, "name": "FENGYUN 1C DEB", "group": "fengyun-1c-debris", "lat": -80.61474199558566, "lon": -9.669019966626646, "alt_km": 629.5201661723622, "timestamp": "2025-12-19T08:58:49.621680+00:00", "meta": {"OBJECT_NAME": "FENGYUN 1C DEB", "OBJECT_ID": "1999-025CAM", "EPOCH": "2025-12-14T00:29:29.214528", "MEAN_MOTION": 14.7163067, "ECCENTRICITY": 0.00611168, "INCLINATION": 99.3463, "RA_OF_ASC_NODE": 259.0236, "ARG_OF_PERICENTER": 328.8878, "MEAN_ANOMALY": 30.8711, "EPHEMERIS_TYPE": 0, "CLASSIFICATION_TYPE": "U", "NORAD_CAT_ID": 31631, "ELEMENT_SET_NO": 999, "REV_AT_EPOCH": 63991, "BSTAR": 0.0070483244, "MEAN_MOTION_DOT": 0.00045391, "MEAN_MOTION_DDOT": 0}, "tle": {"line1": "1 31631U 99025CAM 25348.02047702  .00045391  00000+0  70483-2 0  9998", "line2": "2 31631  99.3463 259.0236 0061116 328.8878  30.8711 14.71630670639919"}}, "geometry": {"type": "Point", "coordinates": [-9.669019966626646, -80.61474199558566]}}, {"type": "Feature", "properties": {"norad_id": 31634, "name": "FENGYUN 1C DEB", "group": "fengyun-1c-debris", "lat": -18.206428444382325, "lon": 43.0759790658267, "alt_km": 979.4542226985905, "timestamp": "2025-12-19T08:58:49.621690+00:00", "meta": {"OBJECT_NAME": "FENGYUN 1C DEB", "OBJECT_ID": "1999-025CAQ", "EPOCH": "2025-12-17T20:54:46.786176", "MEAN_MOTION": 13.94677319, "ECCENTRICITY": 0.00920361, "INCLINATION": 99.3665, "RA_OF_ASC_NODE": 38.4397, "ARG_OF_PERICENTER": 144.0195, "MEAN_ANOMALY": 216.7209, "EPHEMERIS_TYPE": 0, "CLASSIFICATION_TYPE": "U", "NORAD_CAT_ID": 31634, "ELEMENT_SET_NO": 999, "REV_AT_EPOCH": 56595, "BSTAR": 0.00024519173, "MEAN_MOTION_DOT": 2.94e-06, "MEAN_MOTION_DDOT": 0}, "tle": {"line1": "1 31634U 99025CAQ 25351.87137484  .00000294  00000+0  24519-3 0  9998", "line2": "2 31634  99.3665  38.4397 0092036 144.0195 216.7209 13.94677319565952"}}, "geometry": {"type": "Point", "coordinates": [43.0759790658267, -18.206428444382325]}}, {"type": "Feature", "properties": {"norad_id": 31639, "name": "FENGYUN 1C DEB", "group": "fengyun-1c-debris", "lat": -12.86481611193349, "lon": -59.118726116647274, "alt_km": 1040.204701116404, "timestamp": "2025-12-19T08:58:49.621700+00:00", "meta": {"OBJECT_NAME": "FENGYUN 1C DEB", "OBJECT_ID": "1999-025CAV", "EPOCH": "2025-12-17T14:33:04.588704", "MEAN_MOTION": 13.85164921, "ECCENTRICITY": 0.01618732, "INCLINATION": 98.7438, "RA_OF_ASC_NODE": 297.218, "ARG_OF_PERICENTER": 132.0188, "MEAN_ANOMALY": 45.3682, "EPHEMERIS_TYPE": 0, "CLASSIFICATION_TYPE": "U", "NORAD_CAT_ID": 31639, "ELEMENT_SET_NO": 999, "REV_AT_EPOCH": 93755, "BSTAR": 9.8807532e-05, "MEAN_MOTION_DOT": 8.5e-07, "MEAN_MOTION_DDOT": 0}, "tle": {"line1": "1 31639U 99025CAV 25351.60630311  .00000085  00000+0  98808-4 0  9992", "line2": "2 31639  98.7438 297.2180 0161873 132.0188  45.3682 13.85164921937558"}}, "geometry": {"type": "Point", "coordinates": [-59.118726116647274, -12.86481611193349]}}, {"type": "Feature", "properties": {"norad_id": 31642, "name": "FENGYUN 1C DEB", "group": "fengyun-1c-debris", "lat": -59.60694427050145, "lon": -119.3213627238802, "alt_km": 702.2771944789074, "timestamp": "2025-12-19T08:58:49.621710+00:00", "meta": {"OBJECT_NAME": "FENGYUN 1C DEB", "OBJECT_ID": "1999-025CAY", "EPOCH": "2025-12-16T22:53:45.845376", "MEAN_MOTION": 14.33410838, "ECCENTRICITY": 0.01192362, "INCLINATION": 98.5043, "RA_OF_ASC_NODE": 73.0801, "ARG_OF_PERICENTER": 243.8646, "MEAN_ANOMALY": 115.0233, "EPHEMERIS_TYPE": 0, "CLASSIFICATION_TYPE": "U", "NORAD_CAT_ID": 31642, "ELEMENT_SET_NO": 999, "REV_AT_EPOCH": 97079, "BSTAR": 0.00032972078, "MEAN_MOTION_DOT": 9.39e-06, "MEAN_MOTION_DDOT": 0}, "tle": {"line1": "1 31642U 99025CAY 25350.95400284  .00000939  00000+0  32972-3 0  9994", "line2": "2 31642  98.5043  73.0801 0119236 243.8646 115.0233 14.33410838970793"}}, "geometry": {"type": "Point", "coordinates": [-119.3213627238802, -59.60694427050145]}}, {"type": "Feature", "properties": {"norad_id": 31644, "name": "FENGYUN 1C DEB", "group": "fengyun-1c-debris", "lat": -71.37897359919845, "lon": -89.45505331058555, "alt_km": 734.6911891335558, "timestamp": "2025-12-19T08:58:49.621720+00:00", "meta": {"OBJECT_NAME": "FENGYUN 1C DEB", "OBJECT_ID": "1999-025CBA", "EPOCH": "2025-12-16T13:09:52.155648", "MEAN_MOTION": 14.67946613, "ECCENTRICITY": 0.01543229, "INCLINATION": 98.6714, "RA_OF_ASC_NODE": 240.6205, "ARG_OF_PERICENTER": 171.2358, "MEAN_ANOMALY": 310.0204, "EPHEMERIS_TYPE": 0, "CLASSIFICATION_TYPE": "U", "NORAD_CAT_ID": 31644, "ELEMENT_SET_NO": 999, "REV_AT_EPOCH": 71100, "BSTAR": 0.00063409882, "MEAN_MOTION_DOT": 4.285e-05, "MEAN_MOTION_DDOT": 0}, "tle": {"line1": "1 31644U 99025CBA 25350.54852032  .00004285  00000+0  63410-3 0  9992", "line2": "2 31644  98.6714 240.6205 0154322 171.2358 310.0204 14.67946613711004"}}, "geometry": {"type": "Point", "coordinates": [-89.45505331058555, -71.37897359919845]}}, {"type": "Feature", "properties": {"norad_id": 31646, "name": "FENGYUN 1C DEB", "group": "fengyun-1c-debris", "lat": -73.95919758850302, "lon": 164.06440148009995, "alt_km": 840.9762638335378, "timestamp": "2025-12-19T08:58:49.621731+00:00", "meta": {"OBJECT_NAME": "FENGYUN 1C DEB", "OBJECT_ID": "1999-025CBC", "EPOCH": "2025-12-13T19:19:15.087072", "MEAN_MOTION": 14.14136772, "ECCENTRICITY": 0.00331403, "INCLINATION": 98.6903, "RA_OF_ASC_NODE": 10.7861, "ARG_OF_PERICENTER": 210.9101, "MEAN_ANOMALY": 149.0123, "EPHEMERIS_TYPE": 0, "CLASSIFICATION_TYPE": "U", "NORAD_CAT_ID": 31646, "ELEMENT_SET_NO": 999, "REV_AT_EPOCH": 63206, "BSTAR": 0.00064506536, "MEAN_MOTION_DOT": 1.192e-05, "MEAN_MOTION_DDOT": 0}, "tle": {"line1": "1 31646U 99025CBC 25347.80503573  .00001192  00000+0  64507-3 0  9994", "line2": "2 31646  98.6903  10.7861 0033140 210.9101 149.0123 14.14136772632068"}}, "geometry": {"type": "Point", "coordinates": [164.06440148009995, -73.95919758850302]}}, {"type": "Feature", "properties": {"norad_id": 31655, "name": "FENGYUN 1C DEB", "group": "fengyun-1c-debris", "lat": -49.10563954247522, "lon": -50.132128765979175, "alt_km": 1239.51475329216, "timestamp": "2025-12-19T08:58:49.621741+00:00", "meta": {"OBJECT_NAME": "FENGYUN 1C DEB", "OBJECT_ID": "1999-025CBM", "EPOCH": "2025-12-18T03:23:30.784128", "MEAN_MOTION": 13.63899091, "ECCENTRICITY": 0.02895123, "INCLINATION": 99.287, "RA_OF_ASC_NODE": 297.7987, "ARG_OF_PERICENTER": 123.8474, "MEAN_ANOMALY": 256.5843, "EPHEMERIS_TYPE": 0, "CLASSIFICATION_TYPE": "U", "NORAD_CAT_ID": 31655, "ELEMENT_SET_NO": 999, "REV_AT_EPOCH": 59793, "BSTAR": 0.0027503966, "MEAN_MOTION_DOT": 2.864e-05, "MEAN_MOTION_DDOT": 0}, "tle": {"line1": "1 31655U 99025CBM 25352.14132852  .00002864  00000+0  27504-2 0  9997", "line2": "2 31655  99.2870 297.7987 0289512 123.8474 256.5843 13.63899091597937"}}, "geometry": {"type": "Point", "coordinates": [-50.132128765979175, -49.10563954247522]}}, {"type": "Feature", "properties": {"norad_id": 31656, "name": "FENGYUN 1C DEB", "group": "fengyun-1c-debris", "lat": -76.65164423976066, "lon": 119.68799669120109, "alt_km": 753.5135929446205, "timestamp": "2025-12-19T08:58:49.621751+00:00", "meta": {"OBJECT_NAME": "FENGYUN 1C DEB", "OBJECT_ID": "1999-025CBN", "EPOCH": "2025-12-18T05:17:39.343200", "MEAN_MOTION": 14.47097458, "ECCENTRICITY": 0.00227708, "INCLINATION": 99.1923, "RA_OF_ASC_NODE": 341.4718, "ARG_OF_PERICENTER": 37.1681, "MEAN_ANOMALY": 336.9827, "EPHEMERIS_TYPE": 0, "CLASSIFICATION_TYPE": "U", "NORAD_CAT_ID": 31656, "ELEMENT_SET_NO": 999, "REV_AT_EPOCH": 96535, "BSTAR": 0.0018042965, "MEAN_MOTION_DOT": 6.551e-05, "MEAN_MOTION_DDOT": 0}, "tle": {"line1": "1 31656U 99025CBN 25352.22059425  .00006551  00000+0  18043-2 0  9996", "line2": "2 31656  99.1923 341.4718 0022770  37.1681 336.9827 14.47097458965353"}}, "geometry": {"type": "Point", "coordinates": [119.68799669120109, -76.65164423976066]}}, {"type": "Feature", "properties": {"norad_id": 31657, "name": "FENGYUN 1C DEB", "group": "fengyun-1c-debris", "lat": -0.4564552137976834, "lon": -99.97521668291435, "alt_km": 821.441761852343, "timestamp": "2025-12-19T08:58:49.621761+00:00", "meta": {"OBJECT_NAME": "FENGYUN 1C DEB", "OBJECT_ID": "1999-025CBP", "EPOCH": "2025-12-15T00:08:35.623968", "MEAN_MOTION": 13.97064465, "ECCENTRICITY": 0.01478678, "INCLINATION": 102.2166, "RA_OF_ASC_NODE": 254.1396, "ARG_OF_PERICENTER": 48.4638, "MEAN_ANOMALY": 312.9088, "EPHEMERIS_TYPE": 0, "CLASSIFICATION_TYPE": "U", "NORAD_CAT_ID": 31657, "ELEMENT_SET_NO": 999, "REV_AT_EPOCH": 62896, "BSTAR": 0.0027457393, "MEAN_MOTION_DOT": 4.139e-05, "MEAN_MOTION_DDOT": 0}, "tle": {"line1": "1 31657U 99025CBP 25349.00596787  .00004139  00000+0  27457-2 0  9995", "line2": "2 31657 102.2166 254.1396 0147867  48.4638 312.9088 13.97064465628965"}}, "geometry": {"type": "Point", "coordinates": [-99.97521668291435, -0.4564552137976834]}}]}